STARLINK-36476          
1 67314U 26002K   26017.91670139 -.01493292  00000+0 -87554-2 0  9995
2 67314  42.9963 257.8638 0001662 277.6894 199.9541 15.80173912  3258
STARLINK-36463          
1 67315U 26002L   26017.91670139 -.01507214  00000+0 -88804-2 0  9995
2 67315  42.9962 257.8520 0001504 270.9712 211.1068 15.80097516  3311
STARLINK-36461          
1 67316U 26002M   26017.91670139 -.01515959  00000+0 -89824-2 0  9994
2 67316  42.9961 257.8454 0001585 277.8884 206.7985 15.79992352  3411
STARLINK-36450          
1 67317U 26002N   26017.91670139 -.01529970  00000+0 -90936-2 0  9999
2 67317  42.9963 257.8401 0001534 277.1226 209.7866 15.79953794  3411
STARLINK-36498          
1 67318U 26002P   26017.91670139 -.01543524  00000+0 -92335-2 0  9996
2 67318  42.9960 257.8280 0001617 273.9764 217.5153 15.79840389  3317
STARLINK-36470          
1 67319U 26002Q   26017.91670139 -.01550970  00000+0 -92559-2 0  9998
2 67319  42.9962 257.8342 0001402 283.0125 206.1842 15.79909254  3310
STARLINK-36500          
1 67320U 26002R   26017.91670139 -.01555683  00000+0 -93377-2 0  9995
2 67320  42.9965 257.8231 0001439 275.7112 218.0288 15.79793799  3317
STARLINK-36462          
1 67321U 26002S   26017.91670139 -.01575848  00000+0 -95298-2 0  9995
2 67321  42.9966 257.8115 0001365 273.3696 224.9884 15.79673423  3251
STARLINK-36434          
1 67322U 26002T   26017.91670139 -.01572710  00000+0 -95053-2 0  9990
2 67322  42.9967 257.8163 0001456 278.9387 217.4398 15.79678595  3257
STARLINK-36497          
1 67323U 26002U   26017.91670139 -.01580025  00000+0 -95856-2 0  9990
2 67323  42.9966 257.8056 0001442 277.2048 223.4354 15.79611957  3314
STARLINK-36471          
1 67324U 26002V   26017.91670139 -.01601475  00000+0 -98274-2 0  9991
2 67324  42.9974 257.7934 0001509 277.7290 227.9228 15.79407161  3258
STARLINK-36473          
1 67325U 26002W   26017.91670139 -.01588945  00000+0 -97028-2 0  9994
2 67325  42.9969 257.7991 0001465 274.0461 229.2192 15.79488384  3416
