CCSDS_OMM_VERS = 2.0
CREATION_DATE  = 
ORIGINATOR     = 

OBJECT_NAME    = STARLINK-36476
OBJECT_ID      = 2026-002K
CENTER_NAME    = EARTH
REF_FRAME      = TEME
TIME_SYSTEM    = UTC
MEAN_ELEMENT_THEORY = SGP/SGP4

EPOCH          = 2026-01-17T22:00:03.000096
MEAN_MOTION    = 15.80173912
ECCENTRICITY   = .00016621
INCLINATION    = 42.9963
RA_OF_ASC_NODE = 257.8638
ARG_OF_PERICENTER = 277.6894
MEAN_ANOMALY   = 199.9541

EPHEMERIS_TYPE = 0
CLASSIFICATION_TYPE = U
NORAD_CAT_ID   = 67314
ELEMENT_SET_NO = 999
REV_AT_EPOCH   = 325
BSTAR          = -.87554135E-2
MEAN_MOTION_DOT = -.1493292E-1
MEAN_MOTION_DDOT = 0

CCSDS_OMM_VERS = 2.0
CREATION_DATE  = 
ORIGINATOR     = 

OBJECT_NAME    = STARLINK-36463
OBJECT_ID      = 2026-002L
CENTER_NAME    = EARTH
REF_FRAME      = TEME
TIME_SYSTEM    = UTC
MEAN_ELEMENT_THEORY = SGP/SGP4

EPOCH          = 2026-01-17T22:00:03.000096
MEAN_MOTION    = 15.80097516
ECCENTRICITY   = .00015044
INCLINATION    = 42.9962
RA_OF_ASC_NODE = 257.8520
ARG_OF_PERICENTER = 270.9712
MEAN_ANOMALY   = 211.1068

EPHEMERIS_TYPE = 0
CLASSIFICATION_TYPE = U
NORAD_CAT_ID   = 67315
ELEMENT_SET_NO = 999
REV_AT_EPOCH   = 331
BSTAR          = -.88804336E-2
MEAN_MOTION_DOT = -.1507214E-1
MEAN_MOTION_DDOT = 0

CCSDS_OMM_VERS = 2.0
CREATION_DATE  = 
ORIGINATOR     = 

OBJECT_NAME    = STARLINK-36461
OBJECT_ID      = 2026-002M
CENTER_NAME    = EARTH
REF_FRAME      = TEME
TIME_SYSTEM    = UTC
MEAN_ELEMENT_THEORY = SGP/SGP4

EPOCH          = 2026-01-17T22:00:03.000096
MEAN_MOTION    = 15.79992352
ECCENTRICITY   = .00015859
INCLINATION    = 42.9961
RA_OF_ASC_NODE = 257.8454
ARG_OF_PERICENTER = 277.8884
MEAN_ANOMALY   = 206.7985

EPHEMERIS_TYPE = 0
CLASSIFICATION_TYPE = U
NORAD_CAT_ID   = 67316
ELEMENT_SET_NO = 999
REV_AT_EPOCH   = 341
BSTAR          = -.89824097E-2
MEAN_MOTION_DOT = -.1515959E-1
MEAN_MOTION_DDOT = 0

CCSDS_OMM_VERS = 2.0
CREATION_DATE  = 
ORIGINATOR     = 

OBJECT_NAME    = STARLINK-36450
OBJECT_ID      = 2026-002N
CENTER_NAME    = EARTH
REF_FRAME      = TEME
TIME_SYSTEM    = UTC
MEAN_ELEMENT_THEORY = SGP/SGP4

EPOCH          = 2026-01-17T22:00:03.000096
MEAN_MOTION    = 15.79953794
ECCENTRICITY   = .00015347
INCLINATION    = 42.9963
RA_OF_ASC_NODE = 257.8401
ARG_OF_PERICENTER = 277.1226
MEAN_ANOMALY   = 209.7866

EPHEMERIS_TYPE = 0
CLASSIFICATION_TYPE = U
NORAD_CAT_ID   = 67317
ELEMENT_SET_NO = 999
REV_AT_EPOCH   = 341
BSTAR          = -.90935526E-2
MEAN_MOTION_DOT = -.152997E-1
MEAN_MOTION_DDOT = 0

CCSDS_OMM_VERS = 2.0
CREATION_DATE  = 
ORIGINATOR     = 

OBJECT_NAME    = STARLINK-36498
OBJECT_ID      = 2026-002P
CENTER_NAME    = EARTH
REF_FRAME      = TEME
TIME_SYSTEM    = UTC
MEAN_ELEMENT_THEORY = SGP/SGP4

EPOCH          = 2026-01-17T22:00:03.000096
MEAN_MOTION    = 15.79840389
ECCENTRICITY   = .00016172
INCLINATION    = 42.9960
RA_OF_ASC_NODE = 257.8280
ARG_OF_PERICENTER = 273.9764
MEAN_ANOMALY   = 217.5153

EPHEMERIS_TYPE = 0
CLASSIFICATION_TYPE = U
NORAD_CAT_ID   = 67318
ELEMENT_SET_NO = 999
REV_AT_EPOCH   = 331
BSTAR          = -.92335102E-2
MEAN_MOTION_DOT = -.1543524E-1
MEAN_MOTION_DDOT = 0

CCSDS_OMM_VERS = 2.0
CREATION_DATE  = 
ORIGINATOR     = 

OBJECT_NAME    = STARLINK-36470
OBJECT_ID      = 2026-002Q
CENTER_NAME    = EARTH
REF_FRAME      = TEME
TIME_SYSTEM    = UTC
MEAN_ELEMENT_THEORY = SGP/SGP4

EPOCH          = 2026-01-17T22:00:03.000096
MEAN_MOTION    = 15.79909254
ECCENTRICITY   = .00014022
INCLINATION    = 42.9962
RA_OF_ASC_NODE = 257.8342
ARG_OF_PERICENTER = 283.0125
MEAN_ANOMALY   = 206.1842

EPHEMERIS_TYPE = 0
CLASSIFICATION_TYPE = U
NORAD_CAT_ID   = 67319
ELEMENT_SET_NO = 999
REV_AT_EPOCH   = 331
BSTAR          = -.92559408E-2
MEAN_MOTION_DOT = -.155097E-1
MEAN_MOTION_DDOT = 0

CCSDS_OMM_VERS = 2.0
CREATION_DATE  = 
ORIGINATOR     = 

OBJECT_NAME    = STARLINK-36500
OBJECT_ID      = 2026-002R
CENTER_NAME    = EARTH
REF_FRAME      = TEME
TIME_SYSTEM    = UTC
MEAN_ELEMENT_THEORY = SGP/SGP4

EPOCH          = 2026-01-17T22:00:03.000096
MEAN_MOTION    = 15.79793799
ECCENTRICITY   = .00014398
INCLINATION    = 42.9965
RA_OF_ASC_NODE = 257.8231
ARG_OF_PERICENTER = 275.7112
MEAN_ANOMALY   = 218.0288

EPHEMERIS_TYPE = 0
CLASSIFICATION_TYPE = U
NORAD_CAT_ID   = 67320
ELEMENT_SET_NO = 999
REV_AT_EPOCH   = 331
BSTAR          = -.93377373E-2
MEAN_MOTION_DOT = -.1555683E-1
MEAN_MOTION_DDOT = 0

CCSDS_OMM_VERS = 2.0
CREATION_DATE  = 
ORIGINATOR     = 

OBJECT_NAME    = STARLINK-36462
OBJECT_ID      = 2026-002S
CENTER_NAME    = EARTH
REF_FRAME      = TEME
TIME_SYSTEM    = UTC
MEAN_ELEMENT_THEORY = SGP/SGP4

EPOCH          = 2026-01-17T22:00:03.000096
MEAN_MOTION    = 15.79673423
ECCENTRICITY   = .00013653
INCLINATION    = 42.9966
RA_OF_ASC_NODE = 257.8115
ARG_OF_PERICENTER = 273.3696
MEAN_ANOMALY   = 224.9884

EPHEMERIS_TYPE = 0
CLASSIFICATION_TYPE = U
NORAD_CAT_ID   = 67321
ELEMENT_SET_NO = 999
REV_AT_EPOCH   = 325
BSTAR          = -.95298078E-2
MEAN_MOTION_DOT = -.1575848E-1
MEAN_MOTION_DDOT = 0

CCSDS_OMM_VERS = 2.0
CREATION_DATE  = 
ORIGINATOR     = 

OBJECT_NAME    = STARLINK-36434
OBJECT_ID      = 2026-002T
CENTER_NAME    = EARTH
REF_FRAME      = TEME
TIME_SYSTEM    = UTC
MEAN_ELEMENT_THEORY = SGP/SGP4

EPOCH          = 2026-01-17T22:00:03.000096
MEAN_MOTION    = 15.79678595
ECCENTRICITY   = .00014565
INCLINATION    = 42.9967
RA_OF_ASC_NODE = 257.8163
ARG_OF_PERICENTER = 278.9387
MEAN_ANOMALY   = 217.4398

EPHEMERIS_TYPE = 0
CLASSIFICATION_TYPE = U
NORAD_CAT_ID   = 67322
ELEMENT_SET_NO = 999
REV_AT_EPOCH   = 325
BSTAR          = -.95052994E-2
MEAN_MOTION_DOT = -.157271E-1
MEAN_MOTION_DDOT = 0

CCSDS_OMM_VERS = 2.0
CREATION_DATE  = 
ORIGINATOR     = 

OBJECT_NAME    = STARLINK-36497
OBJECT_ID      = 2026-002U
CENTER_NAME    = EARTH
REF_FRAME      = TEME
TIME_SYSTEM    = UTC
MEAN_ELEMENT_THEORY = SGP/SGP4

EPOCH          = 2026-01-17T22:00:03.000096
MEAN_MOTION    = 15.79611957
ECCENTRICITY   = .00014429
INCLINATION    = 42.9966
RA_OF_ASC_NODE = 257.8056
ARG_OF_PERICENTER = 277.2048
MEAN_ANOMALY   = 223.4354

EPHEMERIS_TYPE = 0
CLASSIFICATION_TYPE = U
NORAD_CAT_ID   = 67323
ELEMENT_SET_NO = 999
REV_AT_EPOCH   = 331
BSTAR          = -.95855802E-2
MEAN_MOTION_DOT = -.1580025E-1
MEAN_MOTION_DDOT = 0

CCSDS_OMM_VERS = 2.0
CREATION_DATE  = 
ORIGINATOR     = 

OBJECT_NAME    = STARLINK-36471
OBJECT_ID      = 2026-002V
CENTER_NAME    = EARTH
REF_FRAME      = TEME
TIME_SYSTEM    = UTC
MEAN_ELEMENT_THEORY = SGP/SGP4

EPOCH          = 2026-01-17T22:00:03.000096
MEAN_MOTION    = 15.79407161
ECCENTRICITY   = .00015095
INCLINATION    = 42.9974
RA_OF_ASC_NODE = 257.7934
ARG_OF_PERICENTER = 277.7290
MEAN_ANOMALY   = 227.9228

EPHEMERIS_TYPE = 0
CLASSIFICATION_TYPE = U
NORAD_CAT_ID   = 67324
ELEMENT_SET_NO = 999
REV_AT_EPOCH   = 325
BSTAR          = -.98273661E-2
MEAN_MOTION_DOT = -.1601475E-1
MEAN_MOTION_DDOT = 0

CCSDS_OMM_VERS = 2.0
CREATION_DATE  = 
ORIGINATOR     = 

OBJECT_NAME    = STARLINK-36473
OBJECT_ID      = 2026-002W
CENTER_NAME    = EARTH
REF_FRAME      = TEME
TIME_SYSTEM    = UTC
MEAN_ELEMENT_THEORY = SGP/SGP4

EPOCH          = 2026-01-17T22:00:03.000096
MEAN_MOTION    = 15.79488384
ECCENTRICITY   = .00014655
INCLINATION    = 42.9969
RA_OF_ASC_NODE = 257.7991
ARG_OF_PERICENTER = 274.0461
MEAN_ANOMALY   = 229.2192

EPHEMERIS_TYPE = 0
CLASSIFICATION_TYPE = U
NORAD_CAT_ID   = 67325
ELEMENT_SET_NO = 999
REV_AT_EPOCH   = 341
BSTAR          = -.97028408E-2
MEAN_MOTION_DOT = -.1588945E-1
MEAN_MOTION_DDOT = 0

